O3B MPOWER F1           
1 54755U 22174A   23249.80283564 -.00000029  00000+0  00000+0 0  9998
2 54755   0.0448  15.6950 0004693 164.0150   8.5869  5.00118489 14613
